*******************************************************************************
Ephemeris / WWW_USER Fri Mar  7 10:42:38 2025 Pasadena, USA      / Horizons    
*******************************************************************************
Target body name: (2018 TB)                       {source: JPL#26}
Center body name: Earth (399)                     {source: DE441}
Center-site name: Mauna Kea
*******************************************************************************
Start time      : A.D. 2018-Dec-20 03:57:00.0000 UT      
Stop  time      : A.D. 2018-Dec-20 16:41:00.0000 UT      
Step-size       : 1 minutes
*******************************************************************************
Target pole/equ : undefined
Target radii    : undefined                                                    
Center geodetic : 204.5278, 19.8260847, 4.21024   {E-lon(deg),Lat(deg),Alt(km)}
Center cylindric: 204.5278, 6006.35451, 2151.0229 {E-lon(deg),Dxy(km),Dz(km)}
Center pole/equ : ITRF93                          {East-longitude positive}
Center radii    : 6378.137, 6378.137, 6356.752 km {Equator_a, b, pole_c}       
Target primary  : Sun
Vis. interferer : MOON (R_eq= 1737.400) km        {source: DE441}
Rel. light bend : Sun                             {source: DE441}
Rel. lght bnd GM: 1.3271E+11 km^3/s^2                                          
Small-body perts: Yes                             {source: SB441-N16}
Atmos refraction: NO (AIRLESS)
RA format       : HMS
Time format     : CAL 
Calendar mode   : Mixed Julian/Gregorian
RTS-only print  : NO       
EOP file        : eop.250306.p250602                                           
EOP coverage    : DATA-BASED 1962-JAN-20 TO 2025-MAR-06. PREDICTS-> 2025-JUN-01
Units conversion: 1 au= 149597870.700 km, c= 299792.458 km/s, 1 day= 86400.0 s 
Table cut-offs 1: Elevation (-90.0deg=NO ),Airmass (>38.000=NO), Daylight (YES)
Table cut-offs 2: Solar elongation (  0.0,180.0=NO ),Local Hour Angle( 0.0=NO )
Table cut-offs 3: RA/DEC angular rate (     0.0=NO )                           
*******************************************************************************
Initial IAU76/J2000 heliocentric ecliptic osculating elements (au, days, deg.):
  EPOCH=  2458410.5 ! 2018-Oct-19.00 (TDB)         Residual RMS= .12604        
   EC= .5817616216321111   QR= 1.001672821897195   TP= 2458383.1822299529      
   OM= 14.42282174156359   W=  341.1556337077549   IN= 3.61300419916586        
  Equivalent ICRF heliocentric cartesian coordinates (au, au/d):
   X= 9.381709462996228E-01  Y= 4.515017153732180E-01  Z= 2.129237315158303E-01
  VX=-5.799214133182419E-03 VY= 1.778204046057418E-02 VZ= 9.138573561666745E-03
Asteroid physical parameters (km, seconds, rotational period in hours):        
   GM= n.a.                RAD= n.a.               ROTPER= n.a.                
   H= 24.89                G= .150                 B-V= n.a.                   
                           ALBEDO= n.a.            STYP= n.a.                  
*******************************************************************************
 Date__(UT)__HR:MN     R.A._________(ICRF)_________DEC
******************************************************
$$SOE
 2018-Dec-20 12:09  m  03 46 42.827598 +29 04 51.96212
 2018-Dec-20 12:10  m  03 46 42.845102 +29 04 51.75223
 2018-Dec-20 12:11  m  03 46 42.862626 +29 04 51.54227
 2018-Dec-20 12:12  m  03 46 42.880170 +29 04 51.33224
 2018-Dec-20 12:13  m  03 46 42.897734 +29 04 51.12214
 2018-Dec-20 12:14  m  03 46 42.915318 +29 04 50.91198
 2018-Dec-20 12:15  m  03 46 42.932923 +29 04 50.70175
 2018-Dec-20 12:16  m  03 46 42.950548 +29 04 50.49146
 2018-Dec-20 12:17  m  03 46 42.968193 +29 04 50.28110
 2018-Dec-20 12:18  m  03 46 42.985859 +29 04 50.07068
 2018-Dec-20 12:19  m  03 46 43.003545 +29 04 49.86019
 2018-Dec-20 12:20  m  03 46 43.021251 +29 04 49.64964
 2018-Dec-20 12:21  m  03 46 43.038979 +29 04 49.43903
 2018-Dec-20 12:22  m  03 46 43.056726 +29 04 49.22836
 2018-Dec-20 12:23  m  03 46 43.074495 +29 04 49.01762
 2018-Dec-20 12:24  m  03 46 43.092284 +29 04 48.80682
 2018-Dec-20 12:25  m  03 46 43.110094 +29 04 48.59597
 2018-Dec-20 12:26  m  03 46 43.127925 +29 04 48.38505
 2018-Dec-20 12:27  m  03 46 43.145776 +29 04 48.17408
 2018-Dec-20 12:28  m  03 46 43.163649 +29 04 47.96304
 2018-Dec-20 12:29  m  03 46 43.181542 +29 04 47.75195
 2018-Dec-20 12:30  m  03 46 43.199456 +29 04 47.54080
 2018-Dec-20 12:31  m  03 46 43.217391 +29 04 47.32959
 2018-Dec-20 12:32  m  03 46 43.235348 +29 04 47.11833
 2018-Dec-20 12:33  m  03 46 43.253325 +29 04 46.90701
 2018-Dec-20 12:34  m  03 46 43.271323 +29 04 46.69563
 2018-Dec-20 12:35  m  03 46 43.289343 +29 04 46.48420
 2018-Dec-20 12:36  m  03 46 43.307384 +29 04 46.27272
 2018-Dec-20 12:37  m  03 46 43.325446 +29 04 46.06118
 2018-Dec-20 12:38  m  03 46 43.343529 +29 04 45.84959
 2018-Dec-20 12:39  m  03 46 43.361634 +29 04 45.63795
 2018-Dec-20 12:40  m  03 46 43.379760 +29 04 45.42625
 2018-Dec-20 12:41  m  03 46 43.397907 +29 04 45.21451
 2018-Dec-20 12:42  m  03 46 43.416076 +29 04 45.00271
 2018-Dec-20 12:43  m  03 46 43.434266 +29 04 44.79086
 2018-Dec-20 12:44  m  03 46 43.452478 +29 04 44.57897
 2018-Dec-20 12:45  m  03 46 43.470712 +29 04 44.36702
 2018-Dec-20 12:46  m  03 46 43.488966 +29 04 44.15503
 2018-Dec-20 12:47  m  03 46 43.507243 +29 04 43.94299
 2018-Dec-20 12:48  m  03 46 43.525541 +29 04 43.73090
 2018-Dec-20 12:49  m  03 46 43.543861 +29 04 43.51876
 2018-Dec-20 12:50  m  03 46 43.562202 +29 04 43.30658
 2018-Dec-20 12:51  m  03 46 43.580566 +29 04 43.09435
 2018-Dec-20 12:52  m  03 46 43.598951 +29 04 42.88208
 2018-Dec-20 12:53  m  03 46 43.617358 +29 04 42.66976
 2018-Dec-20 12:54  m  03 46 43.635786 +29 04 42.45740
 2018-Dec-20 12:55  m  03 46 43.654237 +29 04 42.24500
 2018-Dec-20 12:56  m  03 46 43.672710 +29 04 42.03255
 2018-Dec-20 12:57  m  03 46 43.691204 +29 04 41.82007
 2018-Dec-20 12:58  m  03 46 43.709720 +29 04 41.60754
 2018-Dec-20 12:59  m  03 46 43.728259 +29 04 41.39497
 2018-Dec-20 13:00  m  03 46 43.746819 +29 04 41.18236
 2018-Dec-20 13:01  m  03 46 43.765402 +29 04 40.96971
 2018-Dec-20 13:02  m  03 46 43.784006 +29 04 40.75702
 2018-Dec-20 13:03  m  03 46 43.802633 +29 04 40.54429
 2018-Dec-20 13:04  m  03 46 43.821282 +29 04 40.33152
 2018-Dec-20 13:05  m  03 46 43.839953 +29 04 40.11872
 2018-Dec-20 13:06  m  03 46 43.858647 +29 04 39.90588
 2018-Dec-20 13:07  m  03 46 43.877362 +29 04 39.69301
 2018-Dec-20 13:08  m  03 46 43.896100 +29 04 39.48010
 2018-Dec-20 13:09  m  03 46 43.914860 +29 04 39.26715
 2018-Dec-20 13:10  m  03 46 43.933642 +29 04 39.05417
 2018-Dec-20 13:11  m  03 46 43.952447 +29 04 38.84116
 2018-Dec-20 13:12  m  03 46 43.971274 +29 04 38.62811
 2018-Dec-20 13:13  m  03 46 43.990124 +29 04 38.41503
 2018-Dec-20 13:14  m  03 46 44.008996 +29 04 38.20192
 2018-Dec-20 13:15  m  03 46 44.027890 +29 04 37.98878
 2018-Dec-20 13:16  m  03 46 44.046807 +29 04 37.77561
 2018-Dec-20 13:17  m  03 46 44.065746 +29 04 37.56240
 2018-Dec-20 13:18  m  03 46 44.084708 +29 04 37.34917
 2018-Dec-20 13:19  m  03 46 44.103692 +29 04 37.13591
 2018-Dec-20 13:20  m  03 46 44.122699 +29 04 36.92262
 2018-Dec-20 13:21  m  03 46 44.141729 +29 04 36.70930
 2018-Dec-20 13:22  m  03 46 44.160781 +29 04 36.49596
 2018-Dec-20 13:23  m  03 46 44.179855 +29 04 36.28259
 2018-Dec-20 13:24  m  03 46 44.198953 +29 04 36.06919
 2018-Dec-20 13:25  m  03 46 44.218073 +29 04 35.85577
 2018-Dec-20 13:26  m  03 46 44.237215 +29 04 35.64233
 2018-Dec-20 13:27  m  03 46 44.256381 +29 04 35.42886
 2018-Dec-20 13:28  m  03 46 44.275569 +29 04 35.21536
 2018-Dec-20 13:29  m  03 46 44.294780 +29 04 35.00185
 2018-Dec-20 13:30  m  03 46 44.314013 +29 04 34.78831
 2018-Dec-20 13:31  m  03 46 44.333270 +29 04 34.57475
 2018-Dec-20 13:32  m  03 46 44.352549 +29 04 34.36117
 2018-Dec-20 13:33  m  03 46 44.371851 +29 04 34.14757
 2018-Dec-20 13:34  m  03 46 44.391176 +29 04 33.93395
 2018-Dec-20 13:35  m  03 46 44.410523 +29 04 33.72031
 2018-Dec-20 13:36  m  03 46 44.429894 +29 04 33.50665
 2018-Dec-20 13:37  m  03 46 44.449287 +29 04 33.29298
 2018-Dec-20 13:38  m  03 46 44.468703 +29 04 33.07928
 2018-Dec-20 13:39  m  03 46 44.488142 +29 04 32.86558
 2018-Dec-20 13:40  m  03 46 44.507604 +29 04 32.65185
 2018-Dec-20 13:41  m  03 46 44.527089 +29 04 32.43811
 2018-Dec-20 13:42  m  03 46 44.546597 +29 04 32.22435
 2018-Dec-20 13:43  m  03 46 44.566128 +29 04 32.01058
 2018-Dec-20 13:44  m  03 46 44.585682 +29 04 31.79680
 2018-Dec-20 13:45  m  03 46 44.605258 +29 04 31.58301
 2018-Dec-20 13:46  m  03 46 44.624858 +29 04 31.36920
 2018-Dec-20 13:47  m  03 46 44.644481 +29 04 31.15538
 2018-Dec-20 13:48  m  03 46 44.664127 +29 04 30.94155
 2018-Dec-20 13:49  m  03 46 44.683795 +29 04 30.72771
 2018-Dec-20 13:50  m  03 46 44.703487 +29 04 30.51385
 2018-Dec-20 13:51  m  03 46 44.723202 +29 04 30.29999
 2018-Dec-20 13:52  m  03 46 44.742940 +29 04 30.08613
 2018-Dec-20 13:53  m  03 46 44.762701 +29 04 29.87225
 2018-Dec-20 13:54  m  03 46 44.782484 +29 04 29.65836
 2018-Dec-20 13:55  m  03 46 44.802291 +29 04 29.44447
 2018-Dec-20 13:56  m  03 46 44.822122 +29 04 29.23058
 2018-Dec-20 13:57  m  03 46 44.841975 +29 04 29.01667
 2018-Dec-20 13:58  m  03 46 44.861851 +29 04 28.80277
 2018-Dec-20 13:59  m  03 46 44.881750 +29 04 28.58886
 2018-Dec-20 14:00  m  03 46 44.901673 +29 04 28.37494
 2018-Dec-20 14:01  m  03 46 44.921618 +29 04 28.16102
 2018-Dec-20 14:02  m  03 46 44.941587 +29 04 27.94710
 2018-Dec-20 14:03  m  03 46 44.961579 +29 04 27.73318
 2018-Dec-20 14:04  m  03 46 44.981593 +29 04 27.51926
 2018-Dec-20 14:05  m  03 46 45.001631 +29 04 27.30533
 2018-Dec-20 14:06  m  03 46 45.021692 +29 04 27.09141
 2018-Dec-20 14:07  m  03 46 45.041777 +29 04 26.87749
 2018-Dec-20 14:08  m  03 46 45.061884 +29 04 26.66357
 2018-Dec-20 14:09  m  03 46 45.082014 +29 04 26.44965
 2018-Dec-20 14:10  m  03 46 45.102168 +29 04 26.23573
 2018-Dec-20 14:11  m  03 46 45.122345 +29 04 26.02182
